GLOBALSTAR M024         
1 25883U 99043A   25337.39144013 -.00000132  00000+0 -23884-2 0  9990
2 25883  52.0047 358.8370 0001384  14.6813  89.3541 11.10167702133653
GLOBALSTAR M027         
1 25884U 99043B   25337.48263147 -.00000104  00000+0 -15209-2 0  9992
2 25884  52.0217  81.4080 0020931 263.3938  96.4472 11.04372580159947
GLOBALSTAR M054         
1 25885U 99043C   25337.31996618 -.00000022  00000+0  12682-2 0  9991
2 25885  52.0101 180.6882 0006015 102.5897  68.3906 11.39224492138322
GLOBALSTAR M053         
1 25886U 99043D   25337.45966763 -.00000070  00000+0 -38540-4 0  9992
2 25886  51.9948 136.8383 0003590  31.7405   0.9669 11.27668947138548
GLOBALSTAR M058         
1 25907U 99049A   25337.35732549 -.00000016  00000+0  92696-3 0  9994
2 25907  51.9966  17.4425 0001832 229.0152 131.0525 11.93206603561739
GLOBALSTAR M050         
1 25908U 99049B   25337.52550139  .00000028  00000+0  13081-2 0  9999
2 25908  52.0015  12.0182 0008961  10.6118 157.0722 12.07461241168641
GLOBALSTAR M033         
1 25909U 99049C   25337.41078858 -.00000049  00000+0  40771-3 0  9992
2 25909  51.9902 232.4781 0013209 253.7046 106.2348 12.20293914556409
GLOBALSTAR M055         
1 25910U 99049D   25337.44259623 -.00000055  00000+0  33605-3 0  9993
2 25910  52.0011 234.8940 0007537 116.5574 243.6050 12.29437089189103
